[{"OBJECT_NAME":"STARLINK-5607","OBJECT_ID":"2023-014P","EPOCH":"2026-03-09T23:07:47.129088","MEAN_MOTION":14.98339315,"ECCENTRICITY":0.00036319,"INCLINATION":69.9998,"RA_OF_ASC_NODE":63.8818,"ARG_OF_PERICENTER":270.1133,"MEAN_ANOMALY":89.961,"EPHEMERIS_TYPE":0,"CLASSIFICATION_TYPE":"U","NORAD_CAT_ID":55404,"ELEMENT_SET_NO":999,"REV_AT_EPOCH":17209,"BSTAR":-2.5546071e-5,"MEAN_MOTION_DOT":-3.98e-6,"MEAN_MOTION_DDOT":0},{"OBJECT_NAME":"RROCI-2","OBJECT_ID":"2024-043J","EPOCH":"2026-03-09T21:40:56.693280","MEAN_MOTION":14.99383357,"ECCENTRICITY":0.00054118,"INCLINATION":97.8279,"RA_OF_ASC_NODE":200.9973,"ARG_OF_PERICENTER":337.3784,"MEAN_ANOMALY":22.7199,"EPHEMERIS_TYPE":0,"CLASSIFICATION_TYPE":"U","NORAD_CAT_ID":59106,"ELEMENT_SET_NO":999,"REV_AT_EPOCH":10988,"BSTAR":0.00035067832,"MEAN_MOTION_DOT":4.232e-5,"MEAN_MOTION_DDOT":0}]
